NORAD_CAT_ID,OBJECT_NAME,OBJECT_TYPE,EPOCH,MEAN_MOTION,ECCENTRICITY,INCLINATION,RA_OF_ASC_NODE,ARG_OF_PERICENTER,MEAN_ANOMALY,BSTAR,MEAN_MOTION_DOT,MEAN_MOTION_DDOT,TLE_LINE0,TLE_LINE1,TLE_LINE2,SEMIMAJOR_AXIS,PERIOD,APOGEE,PERIGEE,DECAYED
56465.0,STARLINK-6054,PAYLOAD,2024-03-03 13:56:25,14.9833517,0.0002836,70.0015,160.2935,265.779,94.3045,3.6192e-05,3.39e-06,0.0,0 STARLINK-6054,1 56465U 23064T   24063.58084773  .00000339  00000-0  36192-4 0  9998,2 56465  70.0015 160.2935 0002836 265.7790  94.3045 14.98335170 45973,6950.177,96.107,574.013,570.071,0.0
56465.0,STARLINK-6054,PAYLOAD,2024-03-03 17:08:41,14.98338615,0.0002827,70.0014,159.9569,266.0108,94.0728,7.2639e-05,7.74e-06,0.0,0 STARLINK-6054,1 56465U 23064T   24063.71436405  .00000774  00000-0  72639-4 0  9995,2 56465  70.0014 159.9569 0002827 266.0108  94.0728 14.98338615 45991,6950.166,96.106,573.996,570.066,0.0
56465.0,STARLINK-6054,PAYLOAD,2024-03-04 12:22:17,14.98338561,0.0002841,70.0014,157.9355,268.7686,91.3147,0.00020394,2.342e-05,0.0,0 STARLINK-6054,1 56465U 23064T   24064.51547650  .00002342  00000-0  20394-3 0  9992,2 56465  70.0014 157.9355 0002841 268.7686  91.3147 14.98338561 46477,6950.166,96.106,574.006,570.057,0.0
56465.0,STARLINK-6054,PAYLOAD,2024-03-04 13:58:25,14.98342004,0.0002733,70.0013,157.7672,265.583,94.5017,0.00018688,2.138e-05,0.0,0 STARLINK-6054,1 56465U 23064T   24064.58223415  .00002138  00000-0  18688-3 0  9995,2 56465  70.0013 157.7672 0002733 265.5830  94.5017 14.98342004 46122,6950.156,96.106,573.92,570.121,0.0
56465.0,STARLINK-6054,PAYLOAD,2024-03-04 15:34:32,14.98343255,0.0002727,70.0014,157.599,265.9186,94.1662,0.00019711,2.26e-05,0.0,0 STARLINK-6054,1 56465U 23064T   24064.64899256  .00002260  00000-0  19711-3 0  9998,2 56465  70.0014 157.5990 0002727 265.9186  94.1662 14.98343255 46137,6950.152,96.106,573.912,570.122,0.0
56465.0,STARLINK-6054,PAYLOAD,2024-03-05 14:00:28,14.98315892,0.0003311,70.0008,155.2424,270.5597,89.5183,-0.00023252,-2.865e-05,0.0,0 STARLINK-6054,1 56465U 23064T   24065.58366341 -.00002865  00000-0 -23252-3 0  9994,2 56465  70.0008 155.2424 0003311 270.5597  89.5183 14.98315892 46272,6950.237,96.108,574.403,569.8,0.0
56465.0,STARLINK-6054,PAYLOAD,2024-03-05 15:36:36,14.98316336,0.00033,70.0008,155.0742,270.3022,89.7758,-0.00022259,-2.747e-05,0.0,0 STARLINK-6054,1 56465U 23064T   24065.65042333 -.00002747  00000-0 -22259-3 0  9999,2 56465  70.0008 155.0742 0003300 270.3022  89.7758 14.98316336 46647,6950.235,96.108,574.394,569.807,0.0
56465.0,STARLINK-6054,PAYLOAD,2024-03-06 10:50:12,14.98330585,0.0003335,70.0009,153.0553,270.4825,89.5952,-0.00012862,-1.627e-05,0.0,0 STARLINK-6054,1 56465U 23064T   24066.45153477 -.00001627  00000-0 -12862-3 0  9995,2 56465  70.0009 153.0553 0003335 270.4825  89.5952 14.98330585 46765,6950.191,96.107,574.374,569.738,0.0
56465.0,STARLINK-6054,PAYLOAD,2024-03-06 14:02:28,14.98335937,0.0003295,70.0008,152.7186,270.192,89.8862,-6.1551e-05,-8.27e-06,0.0,0 STARLINK-6054,1 56465U 23064T   24066.58504950 -.00000827  00000-0 -61551-4 0  9996,2 56465  70.0008 152.7186 0003295 270.1920  89.8862 14.98335937 46422,6950.175,96.107,574.33,569.749,0.0
56465.0,STARLINK-6054,PAYLOAD,2024-03-06 15:38:36,14.98337051,0.0003311,70.0009,152.5505,270.3378,89.7402,-4.5646e-05,-6.38e-06,0.0,0 STARLINK-6054,1 56465U 23064T   24066.65180826 -.00000638  00000-0 -45646-4 0  9993,2 56465  70.0009 152.5505 0003311 270.3378  89.7402 14.98337051 46792,6950.171,96.107,574.337,569.735,0.0
56465.0,STARLINK-6054,PAYLOAD,2024-03-07 14:04:28,14.98331531,0.0003485,70.0007,150.194,270.8557,89.2203,0.00031245,3.637e-05,0.0,0 STARLINK-6054,1 56465U 23064T   24067.58644170  .00003637  00000-0  31245-3 0  9992,2 56465  70.0007 150.1940 0003485 270.8557  89.2203 14.98331531 46570,6950.188,96.107,574.475,569.631,0.0
56465.0,STARLINK-6054,PAYLOAD,2024-03-08 12:30:21,14.98344282,0.0002475,70.0023,147.8418,244.2895,115.8008,-0.00013355,-1.687e-05,0.0,0 STARLINK-6054,1 56465U 23064T   24068.52108481 -.00001687  00000-0 -13355-3 0  9994,2 56465  70.0023 147.8418 0002475 244.2895 115.8008 14.98344282 47071,6950.149,96.106,573.734,570.294,0.0
56465.0,STARLINK-6054,PAYLOAD,2024-03-08 22:07:10,14.98328167,0.0002938,70.0017,146.8296,263.9264,96.156,1.7669e-05,1.18e-06,0.0,0 STARLINK-6054,1 56465U 23064T   24068.92165053  .00000118  00000-0  17669-4 0  9995,2 56465  70.0017 146.8296 0002938 263.9264  96.1560 14.98328167 46773,6950.199,96.107,574.106,570.022,0.0
56465.0,STARLINK-6054,PAYLOAD,2024-03-09 10:56:14,14.98332331,0.0003185,70.0008,145.4812,265.3421,94.7374,-0.00011974,-1.522e-05,0.0,0 STARLINK-6054,1 56465U 23064T   24069.45572909 -.00001522  00000-0 -11974-3 0  9990,2 56465  70.0008 145.4812 0003185 265.3421  94.7374 14.98332331 46852,6950.186,96.107,574.264,569.837,0.0
56465.0,STARLINK-6054,PAYLOAD,2024-03-09 22:09:11,14.98366638,0.0003747,70.0026,144.3021,274.6638,85.4093,-0.0011236,-0.00013487,0.0,0 STARLINK-6054,1 56465U 23064T   24069.92304542 -.00013487  00000-0 -11236-2 0  9991,2 56465  70.0026 144.3021 0003747 274.6638  85.4093 14.98366638 46929,6950.08,96.105,574.549,569.34,0.0
56465.0,STARLINK-6054,PAYLOAD,2024-03-10 04:33:43,14.98326626,0.0003343,70.0007,143.6293,269.9042,90.1734,-3.0351e-05,-4.55e-06,0.0,0 STARLINK-6054,1 56465U 23064T   24070.19008862 -.00000455  00000-0 -30351-4 0  9990,2 56465  70.0007 143.6293 0003343 269.9042  90.1734 14.98326626 47322,6950.203,96.107,574.392,569.745,0.0
56465.0,STARLINK-6054,PAYLOAD,2024-03-10 10:58:15,14.98332509,0.000341,69.9999,142.9565,270.4896,89.5873,1.9025e-06,-7e-07,0.0,0 STARLINK-6054,1 56465U 23064T   24070.45712408 -.00000070  00000-0  19025-5 0  9995,2 56465  69.9999 142.9565 0003410 270.4896  89.5873 14.98332509 47000,6950.185,96.107,574.42,569.68,0.0
56465.0,STARLINK-6054,PAYLOAD,2024-03-10 22:11:11,14.98333168,0.0003461,69.9996,141.7773,271.4247,88.6516,1.4346e-05,7.8e-07,0.0,0 STARLINK-6054,1 56465U 23064T   24070.92444228  .00000078  00000-0  14346-4 0  9996,2 56465  69.9996 141.7773 0003461 271.4247  88.6516 14.98333168 47075,6950.183,96.107,574.454,569.643,0.0
56465.0,STARLINK-6054,PAYLOAD,2024-03-11 04:35:44,14.98323194,0.0003266,70.0,141.1044,269.5765,90.502,3.7093e-05,3.5e-06,0.0,0 STARLINK-6054,1 56465U 23064T   24071.19148853  .00000350  00000-0  37093-4 0  9998,2 56465  70.0000 141.1044 0003266 269.5765  90.5020 14.98323194 47479,6950.214,96.107,574.349,569.809,0.0
56465.0,STARLINK-6054,PAYLOAD,2024-03-11 11:00:16,14.98326163,0.0003239,69.9998,140.4308,267.76,92.3188,2.1605e-05,1.65e-06,0.0,0 STARLINK-6054,1 56465U 23064T   24071.45852785  .00000165  00000-0  21605-4 0  9999,2 56465  69.9998 140.4308 0003239 267.7600  92.3188 14.98326163 47154,6950.205,96.107,574.321,569.819,0.0
56465.0,STARLINK-6054,PAYLOAD,2024-03-12 04:37:45,14.98331648,0.0003224,69.9998,138.5798,269.8704,90.2086,8.302e-06,6e-08,0.0,0 STARLINK-6054,1 56465U 23064T   24072.19288505  .00000006  00000-0  83020-5 0  9998,2 56465  69.9998 138.5798 0003224 269.8704  90.2086 14.98331648 47627,6950.188,96.107,574.294,569.812,0.0
56465.0,STARLINK-6054,PAYLOAD,2024-03-12 11:02:17,14.98333473,0.0003319,69.9997,137.9072,270.3801,89.6978,1.5541e-05,9.2e-07,0.0,0 STARLINK-6054,1 56465U 23064T   24072.45992322  .00000092  00000-0  15541-4 0  9993,2 56465  69.9997 137.9072 0003319 270.3801  89.6978 14.98333473 47309,6950.182,96.107,574.354,569.74,0.0
56465.0,STARLINK-6054,PAYLOAD,2024-03-13 04:39:46,14.9832874,0.0003236,70.0,136.0561,269.9515,90.1273,7.968e-05,8.58e-06,0.0,0 STARLINK-6054,1 56465U 23064T   24073.19428296  .00000858  00000-0  79680-4 0  9993,2 56465  70.0000 136.0561 0003236 269.9515  90.1273 14.98328740 47771,6950.197,96.107,574.311,569.813,0.0
56465.0,STARLINK-6054,PAYLOAD,2024-03-13 11:04:18,14.98322747,0.0003177,69.9998,135.3824,270.1588,89.9207,0.00020324,2.332e-05,0.0,0 STARLINK-6054,1 56465U 23064T   24073.46132357  .00002332  00000-0  20324-3 0  9992,2 56465  69.9998 135.3824 0003177 270.1588  89.9207 14.98322747 47455,6950.215,96.107,574.288,569.872,0.0
56465.0,STARLINK-6054,PAYLOAD,2024-03-13 20:41:06,14.98333982,0.00033,69.9995,134.3714,271.8138,88.2643,1.0226e-05,2.9e-07,0.0,0 STARLINK-6054,1 56465U 23064T   24073.86188039  .00000029  00000-0  10226-4 0  9996,2 56465  69.9995 134.3714 0003300 271.8138  88.2643 14.98333982 47512,6950.181,96.107,574.339,569.752,0.0
56465.0,STARLINK-6054,PAYLOAD,2024-03-14 04:41:47,14.98330262,0.0002998,70.0003,133.5312,270.1768,89.9048,-2.8041e-05,-4.28e-06,0.0,0 STARLINK-6054,1 56465U 23064T   24074.19568445 -.00000428  00000-0 -28041-4 0  9995,2 56465  70.0003 133.5312 0002998 270.1768  89.9048 14.98330262 47923,6950.192,96.107,574.141,569.973,0.0
56465.0,STARLINK-6054,PAYLOAD,2024-03-14 06:17:55,14.98330223,0.0003,70.0003,133.3629,269.9774,90.1041,-2.8302e-05,-4.31e-06,0.0,0 STARLINK-6054,1 56465U 23064T   24074.26244440 -.00000431  00000-0 -28302-4 0  9993,2 56465  70.0003 133.3629 0003000 269.9774  90.1041 14.98330223 47575,6950.192,96.107,574.142,569.972,0.0
56465.0,STARLINK-6054,PAYLOAD,2024-03-14 11:06:19,14.98329953,0.0002965,70.0001,132.858,268.3417,91.7402,-2.3678e-05,-3.75e-06,0.0,0 STARLINK-6054,1 56465U 23064T   24074.46272428 -.00000375  00000-0 -23678-4 0  9990,2 56465  70.0001 132.8580 0002965 268.3417  91.7402 14.98329953 47609,6950.193,96.107,574.119,569.997,0.0
56465.0,STARLINK-6054,PAYLOAD,2024-03-15 04:43:47,14.98331266,0.0003004,70.0,131.0066,268.1252,91.9563,-2.0536e-05,-3.38e-06,0.0,0 STARLINK-6054,1 56465U 23064T   24075.19708268 -.00000338  00000-0 -20536-4 0  9996,2 56465  70.0000 131.0066 0003004 268.1252  91.9563 14.98331266 48070,6950.189,96.107,574.142,569.966,0.0
56465.0,STARLINK-6054,PAYLOAD,2024-03-15 14:20:36,14.98332515,0.0002993,69.9999,129.9966,268.2457,91.8359,-3.7786e-06,-1.38e-06,0.0,0 STARLINK-6054,1 56465U 23064T   24075.59764095 -.00000138  00000-0 -37786-5 0  9994,2 56465  69.9999 129.9966 0002993 268.2457  91.8359 14.98332515 47779,6950.185,96.107,574.13,569.97,0.0
